{"type": "FeatureCollection", "features": [ {"type": "Feature", "properties": {"norad_id": 66550, "name": "CZ-7A R/B", "group": "last-30-days", "lat": 2.2333969962919125, "lon": -78.69998650473583, "alt_km": 32396.168945645233, "timestamp": "2025-12-07T07:31:35.086319+00:00", "meta": {"OBJECT_NAME": "CZ-7A R/B", "OBJECT_ID": "2025-277B", "EPOCH": "2025-12-06T11:25:58.783584", "MEAN_MOTION": 2.49148263, "ECCENTRICITY": 0.7169465, "INCLINATION": 14.4071, "RA_OF_ASC_NODE": 272.9582, "ARG_OF_PERICENTER": 183.2116, "MEAN_ANOMALY": 166.6906, "EPHEMERIS_TYPE": 0, "CLASSIFICATION_TYPE": "U", "NORAD_CAT_ID": 66550, "ELEMENT_SET_NO": 999, "REV_AT_EPOCH": 18, "BSTAR": 0.0029638743, "MEAN_MOTION_DOT": 0.01473319, "MEAN_MOTION_DDOT": 1.649722e-06}, "tle": {"line1": "1 66550U 25277B   25340.47637481  .01473319  16497-5  29639-2 0  9990", "line2": "2 66550  14.4071 272.9582 7169465 183.2116 166.6906  2.49148263   188"}}, "geometry": {"type": "Point", "coordinates": [-78.69998650473583, 2.2333969962919125]}}, {"type": "Feature", "properties": {"norad_id": 66551, "name": "UNKNOWN", "group": "last-30-days", "lat": -40.21822239342527, "lon": 72.93611567272778, "alt_km": 347.44136770914156, "timestamp": "2025-12-07T07:31:35.086330+00:00", "meta": {"OBJECT_NAME": "UNKNOWN", "OBJECT_ID": "2025-271AE", "EPOCH": "2025-12-02T16:00:03.000096", "MEAN_MOTION": 15.87051116, "ECCENTRICITY": 7.17e-05, "INCLINATION": 53.1571, "RA_OF_ASC_NODE": 236.7807, "ARG_OF_PERICENTER": 110.7411, "MEAN_ANOMALY": 313.9012, "EPHEMERIS_TYPE": 0, "CLASSIFICATION_TYPE": "U", "NORAD_CAT_ID": 66551, "ELEMENT_SET_NO": 999, "REV_AT_EPOCH": 262, "BSTAR": -0.0074303, "MEAN_MOTION_DOT": -0.01709685, "MEAN_MOTION_DDOT": 0}, "tle": {"line1": "1 66551U 25271AE  25336.66670139 -.01709685  00000+0 -74303-2 0  9993", "line2": "2 66551  53.1571 236.7807 0000717 110.7411 313.9012 15.87051116  2624"}}, "geometry": {"type": "Point", "coordinates": [72.93611567272778, -40.21822239342527]}}, {"type": "Feature", "properties": {"norad_id": 66554, "name": "GLOBAL-33", "group": "last-30-days", "lat": -9.547212248153983, "lon": 77.54777157730366, "alt_km": 469.23175723861186, "timestamp": "2025-12-07T07:31:35.086340+00:00", "meta": {"OBJECT_NAME": "GLOBAL-33", "OBJECT_ID": "2025-267A", "EPOCH": "2025-12-06T15:56:11.872320", "MEAN_MOTION": 15.31428184, "ECCENTRICITY": 0.00050435, "INCLINATION": 42.0198, "RA_OF_ASC_NODE": 92.0641, "ARG_OF_PERICENTER": 9.1324, "MEAN_ANOMALY": 350.9604, "EPHEMERIS_TYPE": 0, "CLASSIFICATION_TYPE": "U", "NORAD_CAT_ID": 66554, "ELEMENT_SET_NO": 999, "REV_AT_EPOCH": 247, "BSTAR": 0.00069840721, "MEAN_MOTION_DOT": 0.00021474, "MEAN_MOTION_DDOT": 0}, "tle": {"line1": "1 66554U 25267A   25340.66402630  .00021474  00000+0  69841-3 0  9997", "line2": "2 66554  42.0198  92.0641 0005043   9.1324 350.9604 15.31428184  2472"}}, "geometry": {"type": "Point", "coordinates": [77.54777157730366, -9.547212248153983]}}, {"type": "Feature", "properties": {"norad_id": 66555, "name": "ELECTRON KICK STAGE R/B", "group": "last-30-days", "lat": 19.67895785784985, "lon": 111.61041909709874, "alt_km": 460.78792082136533, "timestamp": "2025-12-07T07:31:35.086351+00:00", "meta": {"OBJECT_NAME": "ELECTRON KICK STAGE R/B", "OBJECT_ID": "2025-267B", "EPOCH": "2025-12-06T14:11:19.744800", "MEAN_MOTION": 15.32375133, "ECCENTRICITY": 0.00070081, "INCLINATION": 42.0184, "RA_OF_ASC_NODE": 92.3831, "ARG_OF_PERICENTER": 7.6662, "MEAN_ANOMALY": 352.4282, "EPHEMERIS_TYPE": 0, "CLASSIFICATION_TYPE": "U", "NORAD_CAT_ID": 66555, "ELEMENT_SET_NO": 999, "REV_AT_EPOCH": 246, "BSTAR": 0.0011819859, "MEAN_MOTION_DOT": 0.00037718, "MEAN_MOTION_DDOT": 0}, "tle": {"line1": "1 66555U 25267B   25340.59120075  .00037718  00000+0  11820-2 0  9991", "line2": "2 66555  42.0184  92.3831 0007008   7.6662 352.4282 15.32375133  2467"}}, "geometry": {"type": "Point", "coordinates": [111.61041909709874, 19.67895785784985]}}, {"type": "Feature", "properties": {"norad_id": 66557, "name": "STARLINK-35699", "group": "last-30-days", "lat": -10.296163918602845, "lon": 141.75968917367425, "alt_km": 391.1641702532952, "timestamp": "2025-12-07T07:31:35.086362+00:00", "meta": {"OBJECT_NAME": "STARLINK-35699", "OBJECT_ID": "2025-268A", "EPOCH": "2025-12-06T22:00:01.999584", "MEAN_MOTION": 15.60632446, "ECCENTRICITY": 0.0001581, "INCLINATION": 42.9998, "RA_OF_ASC_NODE": 155.3559, "ARG_OF_PERICENTER": 272.3136, "MEAN_ANOMALY": 1.1269, "EPHEMERIS_TYPE": 0, "CLASSIFICATION_TYPE": "U", "NORAD_CAT_ID": 66557, "ELEMENT_SET_NO": 999, "REV_AT_EPOCH": 373, "BSTAR": -0.025909306, "MEAN_MOTION_DOT": -0.01944004, "MEAN_MOTION_DDOT": 0}, "tle": {"line1": "1 66557U 25268A   25340.91668981 -.01944004  00000+0 -25909-1 0  9993", "line2": "2 66557  42.9998 155.3559 0001581 272.3136   1.1269 15.60632446  3733"}}, "geometry": {"type": "Point", "coordinates": [141.75968917367425, -10.296163918602845]}}, {"type": "Feature", "properties": {"norad_id": 66558, "name": "STARLINK-35695", "group": "last-30-days", "lat": -9.011144374346095, "lon": 143.1978570537718, "alt_km": 391.0749720391541, "timestamp": "2025-12-07T07:31:35.086372+00:00", "meta": {"OBJECT_NAME": "STARLINK-35695", "OBJECT_ID": "2025-268B", "EPOCH": "2025-12-06T22:00:01.999584", "MEAN_MOTION": 15.6063077, "ECCENTRICITY": 0.0001587, "INCLINATION": 42.9995, "RA_OF_ASC_NODE": 155.3509, "ARG_OF_PERICENTER": 271.6952, "MEAN_ANOMALY": 3.6633, "EPHEMERIS_TYPE": 0, "CLASSIFICATION_TYPE": "U", "NORAD_CAT_ID": 66558, "ELEMENT_SET_NO": 999, "REV_AT_EPOCH": 373, "BSTAR": -0.025875621, "MEAN_MOTION_DOT": -0.01941673, "MEAN_MOTION_DDOT": 0}, "tle": {"line1": "1 66558U 25268B   25340.91668981 -.01941673  00000+0 -25876-1 0  9996", "line2": "2 66558  42.9995 155.3509 0001587 271.6952   3.6633 15.60630770  3730"}}, "geometry": {"type": "Point", "coordinates": [143.1978570537718, -9.011144374346095]}}, {"type": "Feature", "properties": {"norad_id": 66559, "name": "STARLINK-35419", "group": "last-30-days", "lat": -7.721093612168838, "lon": 144.62669740709177, "alt_km": 390.9945845258253, "timestamp": "2025-12-07T07:31:35.086382+00:00", "meta": {"OBJECT_NAME": "STARLINK-35419", "OBJECT_ID": "2025-268C", "EPOCH": "2025-12-06T22:00:01.999584", "MEAN_MOTION": 15.60626038, "ECCENTRICITY": 0.0001598, "INCLINATION": 42.9998, "RA_OF_ASC_NODE": 155.3472, "ARG_OF_PERICENTER": 270.5824, "MEAN_ANOMALY": 6.6955, "EPHEMERIS_TYPE": 0, "CLASSIFICATION_TYPE": "U", "NORAD_CAT_ID": 66559, "ELEMENT_SET_NO": 999, "REV_AT_EPOCH": 373, "BSTAR": -0.025797889, "MEAN_MOTION_DOT": -0.01936229, "MEAN_MOTION_DDOT": 0}, "tle": {"line1": "1 66559U 25268C   25340.91668981 -.01936229  00000+0 -25798-1 0  9991", "line2": "2 66559  42.9998 155.3472 0001598 270.5824   6.6955 15.60626038  3733"}}, "geometry": {"type": "Point", "coordinates": [144.62669740709177, -7.721093612168838]}}, {"type": "Feature", "properties": {"norad_id": 66560, "name": "STARLINK-35411", "group": "last-30-days", "lat": -6.42546643299983, "lon": 146.0463943253471, "alt_km": 390.9253966358365, "timestamp": "2025-12-07T07:31:35.086392+00:00", "meta": {"OBJECT_NAME": "STARLINK-35411", "OBJECT_ID": "2025-268D", "EPOCH": "2025-12-06T22:00:01.999584", "MEAN_MOTION": 15.60628229, "ECCENTRICITY": 0.00016177, "INCLINATION": 42.9998, "RA_OF_ASC_NODE": 155.3423, "ARG_OF_PERICENTER": 268.9241, "MEAN_ANOMALY": 10.2697, "EPHEMERIS_TYPE": 0, "CLASSIFICATION_TYPE": "U", "NORAD_CAT_ID": 66560, "ELEMENT_SET_NO": 999, "REV_AT_EPOCH": 373, "BSTAR": -0.025831554, "MEAN_MOTION_DOT": -0.01938613, "MEAN_MOTION_DDOT": 0}, "tle": {"line1": "1 66560U 25268D   25340.91668981 -.01938613  00000+0 -25832-1 0  9991", "line2": "2 66560  42.9998 155.3423 0001617 268.9241  10.2697 15.60628229  3735"}}, "geometry": {"type": "Point", "coordinates": [146.0463943253471, -6.42546643299983]}}, {"type": "Feature", "properties": {"norad_id": 66561, "name": "STARLINK-35305", "group": "last-30-days", "lat": -3.824120635074385, "lon": 148.86403355915508, "alt_km": 390.6721165725612, "timestamp": "2025-12-07T07:31:35.086404+00:00", "meta": {"OBJECT_NAME": "STARLINK-35305", "OBJECT_ID": "2025-268E", "EPOCH": "2025-12-06T22:00:01.999584", "MEAN_MOTION": 15.60626195, "ECCENTRICITY": 0.00015938, "INCLINATION": 42.9999, "RA_OF_ASC_NODE": 155.3319, "ARG_OF_PERICENTER": 270.0587, "MEAN_ANOMALY": 12.971, "EPHEMERIS_TYPE": 0, "CLASSIFICATION_TYPE": "U", "NORAD_CAT_ID": 66561, "ELEMENT_SET_NO": 999, "REV_AT_EPOCH": 368, "BSTAR": -0.025801967, "MEAN_MOTION_DOT": -0.01936506, "MEAN_MOTION_DDOT": 0}, "tle": {"line1": "1 66561U 25268E   25340.91668981 -.01936506  00000+0 -25802-1 0  9998", "line2": "2 66561  42.9999 155.3319 0001593 270.0587  12.9710 15.60626195  3680"}}, "geometry": {"type": "Point", "coordinates": [148.86403355915508, -3.824120635074385]}}, {"type": "Feature", "properties": {"norad_id": 66562, "name": "STARLINK-35579", "group": "last-30-days", "lat": -5.12636254216344, "lon": 147.45731865062965, "alt_km": 390.83336154003337, "timestamp": "2025-12-07T07:31:35.086414+00:00", "meta": {"OBJECT_NAME": "STARLINK-35579", "OBJECT_ID": "2025-268F", "EPOCH": "2025-12-06T22:00:01.999584", "MEAN_MOTION": 15.60628411, "ECCENTRICITY": 0.00015313, "INCLINATION": 42.9996, "RA_OF_ASC_NODE": 155.3364, "ARG_OF_PERICENTER": 268.4782, "MEAN_ANOMALY": 12.6335, "EPHEMERIS_TYPE": 0, "CLASSIFICATION_TYPE": "U", "NORAD_CAT_ID": 66562, "ELEMENT_SET_NO": 999, "REV_AT_EPOCH": 373, "BSTAR": -0.025835849, "MEAN_MOTION_DOT": -0.01938848, "MEAN_MOTION_DDOT": 0}, "tle": {"line1": "1 66562U 25268F   25340.91668981 -.01938848  00000+0 -25836-1 0  9997", "line2": "2 66562  42.9996 155.3364 0001531 268.4782  12.6335 15.60628411  3737"}}, "geometry": {"type": "Point", "coordinates": [147.45731865062965, -5.12636254216344]}}]}